{
  "type": "FeatureCollection",
  "features": [
    {
      "type": "Feature",
      "properties": {
        "norad_id": 34615,
        "name": "COSMOS 2251 DEB",
        "group": "cosmos-2251-debris",
        "lat": 40.36314322147358,
        "lon": -62.38848206379617,
        "alt_km": 1306.8304589985419,
        "timestamp": "2025-12-19T08:58:49.731829+00:00",
        "meta_object_name": "COSMOS 2251 DEB",
        "meta_object_id": "1993-036WL",
        "meta_epoch": "2025-12-18T06:54:04.948992",
        "meta_mean_motion": 13.5220421,
        "meta_eccentricity": 0.04007834,
        "meta_inclination": 74.0049,
        "meta_ra_of_asc_node": 285.2433,
        "meta_arg_of_pericenter": 191.3049,
        "meta_mean_anomaly": 326.0224,
        "meta_ephemeris_type": 0,
        "meta_classification_type": "U",
        "meta_norad_cat_id": 34615,
        "meta_element_set_no": 999,
        "meta_rev_at_epoch": 82890,
        "meta_bstar": 6.5275002e-05,
        "meta_mean_motion_dot": 5e-07,
        "meta_mean_motion_ddot": 0,
        "tle_line1": "1 34615U 93036WL  25352.28755728  .00000050  00000+0  65275-4 0  9994",
        "tle_line2": "2 34615  74.0049 285.2433 0400783 191.3049 326.0224 13.52204210828907"
      },
      "geometry": {
        "type": "Point",
        "coordinates": [
          -62.38848206379617,
          40.36314322147358
        ]
      }
    },
    {
      "type": "Feature",
      "properties": {
        "norad_id": 34619,
        "name": "COSMOS 2251 DEB",
        "group": "cosmos-2251-debris",
        "lat": 59.581620919212874,
        "lon": -21.974093742088456,
        "alt_km": 736.3740225642605,
        "timestamp": "2025-12-19T08:58:49.731839+00:00",
        "meta_object_name": "COSMOS 2251 DEB",
        "meta_object_id": "1993-036WQ",
        "meta_epoch": "2025-12-18T14:24:49.076928",
        "meta_mean_motion": 14.64658954,
        "meta_eccentricity": 0.00947519,
        "meta_inclination": 74.0432,
        "meta_ra_of_asc_node": 188.6767,
        "meta_arg_of_pericenter": 282.1844,
        "meta_mean_anomaly": 76.8723,
        "meta_ephemeris_type": 0,
        "meta_classification_type": "U",
        "meta_norad_cat_id": 34619,
        "meta_element_set_no": 999,
        "meta_rev_at_epoch": 89384,
        "meta_bstar": 0.00015524282,
        "meta_mean_motion_dot": 8.46e-06,
        "meta_mean_motion_ddot": 0,
        "tle_line1": "1 34619U 93036WQ  25352.60056802  .00000846  00000+0  15524-3 0  9995",
        "tle_line2": "2 34619  74.0432 188.6767 0094751 282.1844  76.8723 14.64658954893840"
      },
      "geometry": {
        "type": "Point",
        "coordinates": [
          -21.974093742088456,
          59.581620919212874
        ]
      }
    },
    {
      "type": "Feature",
      "properties": {
        "norad_id": 34620,
        "name": "COSMOS 2251 DEB",
        "group": "cosmos-2251-debris",
        "lat": -14.077848870441136,
        "lon": -157.01120357207503,
        "alt_km": 745.3982536229896,
        "timestamp": "2025-12-19T08:58:49.731849+00:00",
        "meta_object_name": "COSMOS 2251 DEB",
        "meta_object_id": "1993-036WR",
        "meta_epoch": "2025-12-17T15:37:43.675680",
        "meta_mean_motion": 14.49177124,
        "meta_eccentricity": 0.00800634,
        "meta_inclination": 74.051,
        "meta_ra_of_asc_node": 210.3285,
        "meta_arg_of_pericenter": 245.6066,
        "meta_mean_anomaly": 113.6724,
        "meta_ephemeris_type": 0,
        "meta_classification_type": "U",
        "meta_norad_cat_id": 34620,
        "meta_element_set_no": 999,
        "meta_rev_at_epoch": 86898,
        "meta_bstar": 0.001540269,
        "meta_mean_motion_dot": 6.083e-05,
        "meta_mean_motion_ddot": 0,
        "tle_line1": "1 34620U 93036WR  25351.65119995  .00006083  00000+0  15403-2 0  9998",
        "tle_line2": "2 34620  74.0510 210.3285 0080063 245.6066 113.6724 14.49177124868984"
      },
      "geometry": {
        "type": "Point",
        "coordinates": [
          -157.01120357207503,
          -14.077848870441136
        ]
      }
    },
    {
      "type": "Feature",
      "properties": {
        "norad_id": 34622,
        "name": "COSMOS 2251 DEB",
        "group": "cosmos-2251-debris",
        "lat": 52.9112243984941,
        "lon": -42.6526071018444,
        "alt_km": 755.1688025972935,
        "timestamp": "2025-12-19T08:58:49.731859+00:00",
        "meta_object_name": "COSMOS 2251 DEB",
        "meta_object_id": "1993-036WT",
        "meta_epoch": "2025-12-17T21:31:57.246240",
        "meta_mean_motion": 14.22067123,
        "meta_eccentricity": 0.01045787,
        "meta_inclination": 74.0427,
        "meta_ra_of_asc_node": 297.7571,
        "meta_arg_of_pericenter": 18.9913,
        "meta_mean_anomaly": 37.9607,
        "meta_ephemeris_type": 0,
        "meta_classification_type": "U",
        "meta_norad_cat_id": 34622,
        "meta_element_set_no": 999,
        "meta_rev_at_epoch": 86533,
        "meta_bstar": 0.00082135127,
        "meta_mean_motion_dot": 1.896e-05,
        "meta_mean_motion_ddot": 0,
        "tle_line1": "1 34622U 93036WT  25351.89719035  .00001896  00000+0  82135-3 0  9991",
        "tle_line2": "2 34622  74.0427 297.7571 0104578  18.9913  37.9607 14.22067123865332"
      },
      "geometry": {
        "type": "Point",
        "coordinates": [
          -42.6526071018444,
          52.9112243984941
        ]
      }
    },
    {
      "type": "Feature",
      "properties": {
        "norad_id": 34626,
        "name": "COSMOS 2251 DEB",
        "group": "cosmos-2251-debris",
        "lat": -2.8232839903245646,
        "lon": -49.814571888709175,
        "alt_km": 642.3433362750302,
        "timestamp": "2025-12-19T08:58:49.731870+00:00",
        "meta_object_name": "COSMOS 2251 DEB",
        "meta_object_id": "1993-036WX",
        "meta_epoch": "2025-12-18T23:29:31.492608",
        "meta_mean_motion": 14.72269313,
        "meta_eccentricity": 0.00268804,
        "meta_inclination": 74.0483,
        "meta_ra_of_asc_node": 311.762,
        "meta_arg_of_pericenter": 38.0978,
        "meta_mean_anomaly": 24.7285,
        "meta_ephemeris_type": 0,
        "meta_classification_type": "U",
        "meta_norad_cat_id": 34626,
        "meta_element_set_no": 999,
        "meta_rev_at_epoch": 89236,
        "meta_bstar": 0.00077481237,
        "meta_mean_motion_dot": 4.893e-05,
        "meta_mean_motion_ddot": 0,
        "tle_line1": "1 34626U 93036WX  25352.97883672  .00004893  00000+0  77481-3 0  9992",
        "tle_line2": "2 34626  74.0483 311.7620 0026880  38.0978  24.7285 14.72269313892362"
      },
      "geometry": {
        "type": "Point",
        "coordinates": [
          -49.814571888709175,
          -2.8232839903245646
        ]
      }
    },
    {
      "type": "Feature",
      "properties": {
        "norad_id": 34634,
        "name": "COSMOS 2251 DEB",
        "group": "cosmos-2251-debris",
        "lat": 48.91618676625219,
        "lon": -176.73425347632903,
        "alt_km": 671.3279197264828,
        "timestamp": "2025-12-19T08:58:49.731899+00:00",
        "meta_object_name": "COSMOS 2251 DEB",
        "meta_object_id": "1993-036XF",
        "meta_epoch": "2025-12-18T13:17:53.371680",
        "meta_mean_motion": 14.55673568,
        "meta_eccentricity": 0.00438596,
        "meta_inclination": 74.0515,
        "meta_ra_of_asc_node": 23.9646,
        "meta_arg_of_pericenter": 129.6194,
        "meta_mean_anomaly": 22.7895,
        "meta_ephemeris_type": 0,
        "meta_classification_type": "U",
        "meta_norad_cat_id": 34634,
        "meta_element_set_no": 999,
        "meta_rev_at_epoch": 88866,
        "meta_bstar": 0.00022055428,
        "meta_mean_motion_dot": 9.47e-06,
        "meta_mean_motion_ddot": 0,
        "tle_line1": "1 34634U 93036XF  25352.55408995  .00000947  00000+0  22055-3 0  9999",
        "tle_line2": "2 34634  74.0515  23.9646 0043859 129.6194  22.7895 14.55673568888664"
      },
      "geometry": {
        "type": "Point",
        "coordinates": [
          -176.73425347632903,
          48.91618676625219
        ]
      }
    },
    {
      "type": "Feature",
      "properties": {
        "norad_id": 34635,
        "name": "COSMOS 2251 DEB",
        "group": "cosmos-2251-debris",
        "lat": -63.22273454880038,
        "lon": 23.3618827791115,
        "alt_km": 692.4932644199416,
        "timestamp": "2025-12-19T08:58:49.731911+00:00",
        "meta_object_name": "COSMOS 2251 DEB",
        "meta_object_id": "1993-036XG",
        "meta_epoch": "2025-12-18T14:12:43.790400",
        "meta_mean_motion": 14.68338921,
        "meta_eccentricity": 0.0028072,
        "meta_inclination": 74.0459,
        "meta_ra_of_asc_node": 59.4054,
        "meta_arg_of_pericenter": 126.1956,
        "meta_mean_anomaly": 353.5337,
        "meta_ephemeris_type": 0,
        "meta_classification_type": "U",
        "meta_norad_cat_id": 34635,
        "meta_element_set_no": 999,
        "meta_rev_at_epoch": 73305,
        "meta_bstar": 0.00077319356,
        "meta_mean_motion_dot": 4.463e-05,
        "meta_mean_motion_ddot": 0,
        "tle_line1": "1 34635U 93036XG  25352.59217350  .00004463  00000+0  77319-3 0  9997",
        "tle_line2": "2 34635  74.0459  59.4054 0028072 126.1956 353.5337 14.68338921733050"
      },
      "geometry": {
        "type": "Point",
        "coordinates": [
          23.3618827791115,
          -63.22273454880038
        ]
      }
    }
  ]
}